{"fetched_at":"2026-04-07T02:14:38Z","count":15750,"tles":[{"name":"STARLINK-4381","line1":"1 53222U 22084AK  23361.90881853  .00001379  00000+0  11194-3 0  9995","line2":"2 53222  97.6563  60.2106 0002666  89.6477 270.5053 15.01257404 78879","category":"Starlink"},{"name":"FENGYUN 1C DEB","line1":"1 30552U 99025AKS 26095.35561452  .00018099  00000+0  39134-2 0  9991","line2":"2 30552  98.8385 238.7618 0013058 260.8263  99.1457 14.58268341993061","category":"Weather"},{"name":"STARLINK-1998","line1":"1 47593U 21009AX  23362.14742988  .00005329  00000+0  37641-3 0  9991","line2":"2 47593  53.0541  44.3664 0002240 118.3083 241.8133 15.06398253160165","category":"Starlink"},{"name":"STARLINK-5490","line1":"1 57254U 23094AN  26096.06645308  .00000328  00000+0  21924-4 0  9990","line2":"2 57254  43.0036 224.6942 0001458 269.8882  90.1802 15.26736894151436","category":"Starlink"},{"name":"CZ-6A DEB","line1":"1 60642U 24140AT  24249.24991273  .00100826  00000+0  34608-2 0  9996","line2":"2 60642  89.3837 349.2941 0347425 346.9173  12.3206 14.87795990  4117","category":"Other"},{"name":"LEMUR-2-TEODOR","line1":"1 66768U 25276DG  26096.19223809  .00006784  00000+0  31550-3 0  9993","line2":"2 66768  97.4179 171.1017 0002128  82.0104 278.1372 15.20281197 19509","category":"Other"},{"name":"STARLINK-34012","line1":"1 63926U 25098A   26096.02277082  .00079353  00000+0  65696-2 0  9991","line2":"2 63926  70.0024 205.6638 0006599  17.9002 342.2389 14.98398842 50685","category":"Starlink"},{"name":"FENGYUN 1C DEB","line1":"1 32363U 99025CZG 26067.67496355  .01827255  21916-2  33098-2 0  9994","line2":"2 32363  98.3268  46.0691 0024219 176.4868 183.6583 16.01468877981526","category":"Weather"},{"name":"STARLINK-2190","line1":"1 48564U 21041M   26096.15568512 -.00000537  00000+0 -60100-5 0  9999","line2":"2 48564  53.1624 359.1205 0001619  89.3067 270.8120 15.30187374269483","category":"Starlink"},{"name":"STARLINK-30582","line1":"1 58059U 23158J   26095.42869139  .00005712  00000+0  21696-3 0  9991","line2":"2 58059  43.0041 235.6763 0001923 278.7778  81.2855 15.27575686137668","category":"Starlink"},{"name":"ZQ-2E R/B","line1":"1 62113U 24221C   24359.08998334  .11193373  11419-4  29209-3 0  9994","line2":"2 62113  49.9029 276.2922 0054620 175.2772 318.3296 16.37814829  4269","category":"Other"},{"name":"STARLINK-36144","line1":"1 67829U 26033J   26096.16672454 -.00007017  00000+0 -24566-3 0  9996","line2":"2 67829  43.0015 112.1094 0001107 266.1692  93.1900 15.27587363  5965","category":"Starlink"},{"name":"INTELSAT 2-F3","line1":"1 02717U 67026A   26096.17529354  .00000093  00000+0  00000+0 0  9997","line2":"2 02717   3.9038  68.4132 0018664 227.9133 333.9326  1.00321151123175","category":"Other"},{"name":"ONEWEB-0501","line1":"1 54119U 22138G   26096.14021619 -.00000047  00000+0 -14964-3 0  9992","line2":"2 54119  87.9181 319.3288 0002082  87.7963 272.3409 13.19727237167308","category":"Other"},{"name":"STARLINK-34717","line1":"1 65060U 25165E   26096.20658124  .00007446  00000+0  51952-3 0  9992","line2":"2 65060  97.6034 174.3964 0000634 211.3694 148.7495 15.05664657 38937","category":"Starlink"},{"name":"COSMOS 2251 DEB","line1":"1 35796U 93036ASS 23178.05496095  .00008385  00000+0  21230-2 0  9993","line2":"2 35796  74.0061  68.4403 0036188  26.8057 333.4963 14.50634568736244","category":"Other"},{"name":"STARLINK-3638","line1":"1 51786U 22017U   26095.74892929 -.00000336  00000+0 -30021-5 0  9995","line2":"2 51786  53.2173 227.6476 0001099  94.9843 265.1274 15.08832007226360","category":"Starlink"},{"name":"UNKNOWN","line1":"1 87163U          26092.91648894  .00005060  00000+0  14698-2 0  9993","line2":"2 87163  65.6006 321.9209 0647084  15.0055 346.9231 13.64753848592688","category":"Other"},{"name":"STARLINK-1340","line1":"1 45583U 20025BE  23362.46672323  .00009107  00000+0  62955-3 0  9999","line2":"2 45583  53.0557  77.9382 0001523  63.1933 296.9212 15.06397568203998","category":"Starlink"},{"name":"STARLINK-5790","line1":"1 56036U 23042BC  26096.00002315  .00015329  00000+0  56530-3 0  9996","line2":"2 56036  43.0004 251.1013 0001285 285.7723 330.6826 15.27586988  5738","category":"Starlink"},{"name":"STARLINK-35658","line1":"1 66126U 25237N   26095.79205368  .00029587  00000+0  10068-2 0  9999","line2":"2 66126  53.1570 273.4759 0001063  74.5705 285.5413 15.30209756 26755","category":"Starlink"},{"name":"STARLINK-4146","line1":"1 53294U 22086BE  26096.19371954  .00006029  00000+0  39649-3 0  9993","line2":"2 53294  53.2170  50.4850 0001446  84.0377 276.0780 15.08846314205523","category":"Starlink"},{"name":"STARLINK-32150","line1":"1 60294U 24132S   26095.90014209 -.00000187  00000+0  58026-5 0  9992","line2":"2 60294  53.1609 286.2363 0000947 101.5300 258.5807 15.30193532 95727","category":"Starlink"},{"name":"FENGYUN 1C DEB","line1":"1 30648U 99025APF 26096.27156083  .00008805  00000+0  22577-2 0  9996","line2":"2 30648  98.6362 198.6343 0034946 140.3368 244.7399 14.50168951995250","category":"Weather"},{"name":"STARLINK-2057","line1":"1 47666U 21012AY  23362.41793119  .00002039  00000+0  15575-3 0  9995","line2":"2 47666  53.0544  48.5055 0001537  95.8868 264.2296 15.06393344158899","category":"Starlink"},{"name":"STARLINK-6320","line1":"1 57336U 23099J   26096.01238489  .00004608  00000+0  18117-3 0  9993","line2":"2 57336  43.0025  94.7929 0001158 270.1420  89.9298 15.26774402150291","category":"Starlink"},{"name":"CZ-6A DEB","line1":"1 60706U 24140DK  24249.25752425  .00001936  00000+0  44311-3 0  9997","line2":"2 60706  89.0386 347.7801 0116534 334.9320  24.6255 14.51171430  3474","category":"Other"},{"name":"STARLINK-35890","line1":"1 66835U 25280Q   26095.84817831  .00000985  00000+0  90350-4 0  9999","line2":"2 66835  70.0023 265.9888 0002673 260.5979  99.4878 14.98331821 20146","category":"Starlink"},{"name":"SCS-01 J","line1":"1 63990U 25100J   26096.20745688  .00029842  00000+0  10422-2 0  9993","line2":"2 63990  97.3652 172.5352 0010706 171.8745 188.2671 15.29478367 49809","category":"Other"},{"name":"COSMOS 2438","line1":"1 32955U 08025C   26096.25911035  .00000010  00000+0  65205-6 0  9992","line2":"2 32955  82.5050  37.5846 0022317 100.1415 260.2184 12.43367350810899","category":"Other"},{"name":"STARLINK-2657","line1":"1 48655U 21044T   26095.99291285  .00010363  00000+0  36194-3 0  9994","line2":"2 48655  53.1586 347.1458 0001139  63.9753 296.1365 15.30161557268009","category":"Starlink"},{"name":"STARLINK-30781","line1":"1 58123U 23162F   26096.05408013  .00008457  00000+0  31638-3 0  9994","line2":"2 58123  43.0026 337.8267 0001297 250.6754 109.3957 15.27589478136493","category":"Starlink"},{"name":"STARLINK-32584","line1":"1 62179U 24225S   26096.18225488  .00008995  00000+0  76051-3 0  9993","line2":"2 62179  70.0013  95.0537 0002880 268.6051  91.4778 14.98340310 73990","category":"Starlink"},{"name":"STARLINK-36803","line1":"1 67893U 26035Q   26096.25002315 -.01895547  00000+0 -19770-1 0  9995","line2":"2 67893  97.2853  30.0964 0001765 101.1026  39.3744 15.67456766  6055","category":"Starlink"},{"name":"IRIDIUM 134","line1":"1 43075U 17083F   26096.19485201  .00000094  00000+0  26657-4 0  9993","line2":"2 43075  86.4013 352.1621 0002240  88.5725 271.5727 14.34217856433783","category":"Other"},{"name":"STARLINK-5194","line1":"1 54186U 22141AF  23362.38046171  .00001612  00000+0  11932-3 0  9998","line2":"2 54186  53.2195 356.0205 0001411  89.4787 270.6367 15.08841640 65102","category":"Starlink"},{"name":"GEESAT-4 08","line1":"1 65126U 25170H   26096.18380340  .00002757  00000+0  36526-3 0  9990","line2":"2 65126  49.9650 100.4861 0021022  56.1728 304.1207 14.82642218 36375","category":"Other"},{"name":"COSMOS 2251 DEB","line1":"1 35976U 93036AVS 23177.60797628  .00004524  00000+0  14227-2 0  9998","line2":"2 35976  74.0405 152.7099 0054465  86.2315 274.5065 14.39857324736139","category":"Other"},{"name":"STARLINK-3560","line1":"1 51859U 22022H   26095.68179762 -.00000296  00000+0 -48228-6 0  9992","line2":"2 51859  53.2166 247.9565 0001358  83.7418 276.3729 15.08846468227231","category":"Starlink"},{"name":"STARLINK-31602","line1":"1 59202U 24046B   26096.07211143  .00003171  00000+0  11915-3 0  9997","line2":"2 59202  53.1598  28.0285 0001135  58.7820 301.3292 15.30196796117248","category":"Starlink"},{"name":"STARLINK-33613","line1":"1 63286U 25053X   26096.03542649  .00026356  00000+0  96318-3 0  9997","line2":"2 63286  43.0022  87.5125 0001454 177.7371 182.3487 15.27602892 60374","category":"Starlink"},{"name":"UNKNOWN","line1":"1 88212U          23201.77530921  .00004993  00000+0  37057-3 0  9992","line2":"2 88212  97.6614 252.2648 0019691 163.9684 196.2169 15.03352392  3480","category":"Other"},{"name":"BIRD 2","line1":"1 26959U 01049C   23284.08619489  .06935024  27864-5  38094-3 0  9997","line2":"2 26959  97.7693  66.3671 0010118 271.3565  88.6575 16.41532284528148","category":"Other"},{"name":"STARLINK-1418","line1":"1 45708U 20035BD  23362.13499015  .00001531  00000+0  12166-3 0  9990","line2":"2 45708  53.0556  39.4288 0001187  37.4664 322.6407 15.06389784197788","category":"Starlink"},{"name":"STARLINK-6113","line1":"1 56113U 23046W   26096.16672454  .00096013  00000+0  34569-2 0  9996","line2":"2 56113  43.0009   6.0384 0001547 271.7057 234.6947 15.27546834  5815","category":"Starlink"},{"name":"STARLINK-35061","line1":"1 66191U 25243Q   26096.21306039  .00012466  00000+0  43233-3 0  9992","line2":"2 66191  53.1563 117.6937 0001109  28.2166 331.8895 15.30198840 24864","category":"Starlink"},{"name":"STARLINK-4481","line1":"1 53418U 22097AG  26096.07132574  .00000238  00000+0  33058-4 0  9998","line2":"2 53418  53.2192 340.7605 0001124 100.7554 259.3565 15.08836521202930","category":"Starlink"},{"name":"STARLINK-32256","line1":"1 60362U 24138H   26095.53747540  .00003199  00000+0  12015-3 0  9995","line2":"2 60362  53.1586 185.2094 0000790  71.0593 289.0494 15.30177376 94725","category":"Starlink"}]}